NOAA 15                 
1 25338U 98030A   24262.51508083  .00000514  00000+0  23003-3 0  9997
2 25338  98.5643 287.6784 0011214  56.3036 303.9212 14.26712262370746
NOAA 18                 
1 28654U 05018A   24262.44786280  .00000536  00000+0  30880-3 0  9999
2 28654  98.8685 338.6183 0014787 155.6836 204.5037 14.13332180996432
NOAA 19                 
1 33591U 09005A   24262.48342940  .00000466  00000+0  27333-3 0  9991
2 33591  99.0380 319.2324 0014199  33.2722 326.9340 14.13121656804806
METOP-B                 
1 38771U 12049A   24262.43920339  .00000467  00000+0  23297-3 0  9993
2 38771  98.6188 317.5271 0001259 112.6605 247.4705 14.21512951622798
SARAL                   
1 39086U 13009A   24262.53938810  .00000400  00000+0  16382-3 0  9998
2 39086  98.5529  86.3793 0002393  36.9984 323.1365 14.32509552604445
METOP-C                 
1 43689U 18087A   24262.47694954  .00000467  00000+0  23349-3 0  9998
2 43689  98.7145 320.6219 0002121 146.4950 213.6362 14.21480909304372
ANGELS                  
1 44876U 19092D   24262.06990595  .00017762  00000+0  62469-3 0  9991
2 44876  97.4721  90.8883 0009201 359.8250   0.2985 15.29371800263541
OTB-3-GAZELLE           
1 54023U 22127A   24261.95178745  .00000628  00000+0  20348-3 0  9994
2 54023  98.3509 254.2372 0012309 316.0705  43.9506 14.42227061102494
EOS-6 (OCEANSAT-3)      
1 54361U 22158A   24262.50701289  .00001244  00000+0  35374-3 0  9990
2 54361  98.3538 358.2843 0000774  57.7468 302.3799 14.47022947 95765
